{
"type": "FeatureCollection",
"name": "ZuidasBoundaryEPSG4326WGS84",
"crs": { "type": "name", "properties": { "name": "urn:ogc:def:crs:OGC:1.3:CRS84" } },
"features": [
{ "type": "Feature", "properties": { "fid": 1, "osm_id": 17933488, "class": "place", "type": "quarter", "name": "Zuidas, Zuid, Amsterdam, North Holland, Netherlands", "address": "\"quarter\"=>\"Zuidas\",\"suburb\"=>\"Zuid\",\"city\"=>\"Amsterdam\",\"municipality\"=>\"Amsterdam\",\"state\"=>\"North Holland\",\"ISO3166-2-lvl4\"=>\"NL-NH\",\"country\"=>\"Netherlands\",\"country_code\"=>\"nl\"", "extratags": "\"wikidata\"=>\"Q2984693\",\"wikipedia\"=>\"nl:Zuidas\",\"linked_place\"=>\"quarter\",\"wikimedia_commons\"=>\"Category:Zuidas\"" }, "geometry": { "type": "MultiPolygon", "coordinates": [ [ [ [ 4.8571395, 52.3388219 ], [ 4.8576016, 52.3388411 ], [ 4.857599, 52.336999 ], [ 4.857565, 52.335384 ], [ 4.85742, 52.334274 ], [ 4.857425, 52.333609 ], [ 4.857448, 52.332297 ], [ 4.861817, 52.332305 ], [ 4.861817, 52.332078 ], [ 4.868846, 52.332102 ], [ 4.8688681, 52.3336115 ], [ 4.868831, 52.334993 ], [ 4.8688285, 52.335044 ], [ 4.8773798, 52.3349834 ], [ 4.8786405, 52.3350916 ], [ 4.879205, 52.335099299999989 ], [ 4.8799587, 52.3351124 ], [ 4.8807178, 52.3351271 ], [ 4.8813803, 52.3351058 ], [ 4.8823164, 52.3349927 ], [ 4.8834429, 52.334842 ], [ 4.8846901, 52.3346977 ], [ 4.8854546, 52.334671499999985 ], [ 4.8869486, 52.3347076 ], [ 4.8896978, 52.3347026 ], [ 4.8900036, 52.334701 ], [ 4.8899962, 52.336004 ], [ 4.8900217, 52.3360632 ], [ 4.8901692, 52.336216399999984 ], [ 4.8901927, 52.3362405 ], [ 4.8912013, 52.3370173 ], [ 4.8916344, 52.3373057 ], [ 4.8918141, 52.3374827 ], [ 4.8919415, 52.3377909 ], [ 4.8924243, 52.3420549 ], [ 4.8923546, 52.342267899999989 ], [ 4.8906487, 52.3441196 ], [ 4.8903429, 52.3442409 ], [ 4.8858476, 52.344503 ], [ 4.8854184, 52.3419992 ], [ 4.882881, 52.34176 ], [ 4.8794424, 52.3417239 ], [ 4.8782998, 52.3417468 ], [ 4.8772484, 52.34178940000001 ], [ 4.8649612, 52.3414044 ], [ 4.8648767, 52.3431069 ], [ 4.8641467, 52.3428797 ], [ 4.8633935, 52.3426514 ], [ 4.8620778, 52.3425449 ], [ 4.8593819, 52.3425541 ], [ 4.8572981, 52.34227820000001 ], [ 4.8573947, 52.3420156 ], [ 4.8574877, 52.3414128 ], [ 4.857465, 52.3412856 ], [ 4.8574069, 52.3409603 ], [ 4.8573566, 52.3406786 ], [ 4.8572633, 52.3398197 ], [ 4.8571395, 52.3388743 ], [ 4.8571395, 52.3388219 ] ] ] ] } }
]
}
