{
"type": "FeatureCollection",
"name": "ZuidasBoundary",
"crs": { "type": "name", "properties": { "name": "urn:ogc:def:crs:EPSG::3857" } },
"features": [
{ "type": "Feature", "properties": { "fid": 1, "osm_id": 17933488, "class": "place", "type": "quarter", "name": "Zuidas, Zuid, Amsterdam, North Holland, Netherlands", "address": "\"quarter\"=>\"Zuidas\",\"suburb\"=>\"Zuid\",\"city\"=>\"Amsterdam\",\"municipality\"=>\"Amsterdam\",\"state\"=>\"North Holland\",\"ISO3166-2-lvl4\"=>\"NL-NH\",\"country\"=>\"Netherlands\",\"country_code\"=>\"nl\"", "extratags": "\"wikidata\"=>\"Q2984693\",\"wikipedia\"=>\"nl:Zuidas\",\"linked_place\"=>\"quarter\",\"wikimedia_commons\"=>\"Category:Zuidas\"" }, "geometry": { "type": "MultiPolygon", "coordinates": [ [ [ [ 540694.295851895352826, 6861622.187893417663872 ], [ 540745.736588591011241, 6861625.686038920655847 ], [ 540745.447157914866693, 6861290.071402370929718 ], [ 540741.66229522798676, 6860995.843915802426636 ], [ 540725.520969062927179, 6860793.625681259669363 ], [ 540726.077566516818479, 6860672.479350118897855 ], [ 540728.637914805090986, 6860433.471178324893117 ], [ 541214.992770080920309, 6860434.928523742593825 ], [ 541214.992770080920309, 6860393.576449863612652 ], [ 541997.457470866851509, 6860397.948465261608362 ], [ 541999.91763161343988, 6860672.934784041717649 ], [ 541995.787678504944779, 6860924.611508234404027 ], [ 541995.509379778057337, 6860933.902656117454171 ], [ 542947.435741398483515, 6860922.862587478943169 ], [ 543087.776223441585898, 6860942.574403806589544 ], [ 543150.616075994330458, 6860943.977187398821115 ], [ 543234.517576205311343, 6860946.363741863518953 ], [ 543319.020201666397043, 6860949.041784735396504 ], [ 543392.769364317064174, 6860945.161355555057526 ], [ 543496.975539648439735, 6860924.556854455731809 ], [ 543622.376946027274244, 6860897.102486150339246 ], [ 543761.214614944648929, 6860870.814150819554925 ], [ 543846.318365656072274, 6860866.041087352670729 ], [ 544012.629684901214205, 6860872.617713704705238 ], [ 544318.669228990096599, 6860871.706823307089508 ], [ 544352.710729274665937, 6860871.41533840354532 ], [ 544351.886965042795055, 6861108.796850535087287 ], [ 544354.725612057955004, 6861119.582116795703769 ], [ 544371.145236950018443, 6861147.492703941650689 ], [ 544373.761244983645156, 6861151.883346883580089 ], [ 544486.038083397666924, 6861293.405434835702181 ], [ 544534.250554860336706, 6861345.948511186055839 ], [ 544554.254667355911806, 6861378.19599194265902 ], [ 544568.43677048292011, 6861434.346998105756938 ], [ 544622.181820637895726, 6862211.24598737899214 ], [ 544614.422852129559033, 6862250.056461601518095 ], [ 544424.52293278533034, 6862587.460372821427882 ], [ 544390.481432500877418, 6862609.563309368677437 ], [ 543890.066925537772477, 6862657.322623366490006 ], [ 543842.288600089261308, 6862201.09698810428381 ], [ 543559.826524150441401, 6862157.512921115383506 ], [ 543177.043323108693585, 6862150.935245865024626 ], [ 543049.849672928336076, 6862155.107787160202861 ], [ 542932.808360308292322, 6862162.869812963530421 ], [ 541565.003513033152558, 6862092.72032087109983 ], [ 541555.5970160610741, 6862402.931462741456926 ], [ 541474.333787782001309, 6862361.532844672910869 ], [ 541390.487947316491045, 6862319.934007429517806 ], [ 541244.024893279769458, 6862300.528578637167811 ], [ 540943.918678050162271, 6862302.20491430349648 ], [ 540711.951123135280795, 6862251.933216973207891 ], [ 540722.704585945932195, 6862204.085202003829181 ], [ 540733.05729858961422, 6862094.250848725438118 ], [ 540730.530346148647368, 6862071.074315197765827 ], [ 540724.062683733529411, 6862011.803184855729342 ], [ 540718.463313346612267, 6861960.476523876190186 ], [ 540708.077204855508171, 6861803.98415416572243 ], [ 540694.295851895352826, 6861631.734919108450413 ], [ 540694.295851895352826, 6861622.187893417663872 ] ] ] ] } }
]
}
